CCSDS_OMM_VERS = 2.0
CREATION_DATE  = 
ORIGINATOR     = 

OBJECT_NAME    = SITRO-AIS-57
OBJECT_ID      = 2025-313J
CENTER_NAME    = EARTH
REF_FRAME      = TEME
TIME_SYSTEM    = UTC
MEAN_ELEMENT_THEORY = SGP/SGP4

EPOCH          = 2026-01-19T23:56:22.866432
MEAN_MOTION    = 15.19975632
ECCENTRICITY   = .00173295
INCLINATION    = 97.4098
RA_OF_ASC_NODE = 97.0553
ARG_OF_PERICENTER = 158.2872
MEAN_ANOMALY   = 201.9101

EPHEMERIS_TYPE = 0
CLASSIFICATION_TYPE = U
NORAD_CAT_ID   = 67256
ELEMENT_SET_NO = 999
REV_AT_EPOCH   = 341
BSTAR          = .63914262E-3
MEAN_MOTION_DOT = .13757E-3
MEAN_MOTION_DDOT = 0

CCSDS_OMM_VERS = 2.0
CREATION_DATE  = 
ORIGINATOR     = 

OBJECT_NAME    = SITRO-AIS-59
OBJECT_ID      = 2025-313K
CENTER_NAME    = EARTH
REF_FRAME      = TEME
TIME_SYSTEM    = UTC
MEAN_ELEMENT_THEORY = SGP/SGP4

EPOCH          = 2026-01-20T01:30:28.036800
MEAN_MOTION    = 15.20003276
ECCENTRICITY   = .00170798
INCLINATION    = 97.4104
RA_OF_ASC_NODE = 97.1223
ARG_OF_PERICENTER = 160.0241
MEAN_ANOMALY   = 200.1666

EPHEMERIS_TYPE = 0
CLASSIFICATION_TYPE = U
NORAD_CAT_ID   = 67257
ELEMENT_SET_NO = 999
REV_AT_EPOCH   = 342
BSTAR          = .70025481E-3
MEAN_MOTION_DOT = .15092E-3
MEAN_MOTION_DDOT = 0

CCSDS_OMM_VERS = 2.0
CREATION_DATE  = 
ORIGINATOR     = 

OBJECT_NAME    = SITRO-AIS-58
OBJECT_ID      = 2025-313L
CENTER_NAME    = EARTH
REF_FRAME      = TEME
TIME_SYSTEM    = UTC
MEAN_ELEMENT_THEORY = SGP/SGP4

EPOCH          = 2026-01-20T01:29:45.692160
MEAN_MOTION    = 15.20043289
ECCENTRICITY   = .00170326
INCLINATION    = 97.4100
RA_OF_ASC_NODE = 97.1211
ARG_OF_PERICENTER = 159.3502
MEAN_ANOMALY   = 200.8425

EPHEMERIS_TYPE = 0
CLASSIFICATION_TYPE = U
NORAD_CAT_ID   = 67258
ELEMENT_SET_NO = 999
REV_AT_EPOCH   = 342
BSTAR          = .63240182E-3
MEAN_MOTION_DOT = .13636E-3
MEAN_MOTION_DDOT = 0

CCSDS_OMM_VERS = 2.0
CREATION_DATE  = 
ORIGINATOR     = 

OBJECT_NAME    = 2025-313M
OBJECT_ID      = 2025-313M
CENTER_NAME    = EARTH
REF_FRAME      = TEME
TIME_SYSTEM    = UTC
MEAN_ELEMENT_THEORY = SGP/SGP4

EPOCH          = 2026-01-19T23:49:41.943648
MEAN_MOTION    = 15.20357450
ECCENTRICITY   = .00161937
INCLINATION    = 97.4141
RA_OF_ASC_NODE = 97.0854
ARG_OF_PERICENTER = 158.2201
MEAN_ANOMALY   = 201.9726

EPHEMERIS_TYPE = 0
CLASSIFICATION_TYPE = U
NORAD_CAT_ID   = 67259
ELEMENT_SET_NO = 999
REV_AT_EPOCH   = 341
BSTAR          = .78173992E-3
MEAN_MOTION_DOT = .17029E-3
MEAN_MOTION_DDOT = 0

CCSDS_OMM_VERS = 2.0
CREATION_DATE  = 
ORIGINATOR     = 

OBJECT_NAME    = SITRO-AIS-60
OBJECT_ID      = 2025-313N
CENTER_NAME    = EARTH
REF_FRAME      = TEME
TIME_SYSTEM    = UTC
MEAN_ELEMENT_THEORY = SGP/SGP4

EPOCH          = 2026-01-20T01:27:17.030592
MEAN_MOTION    = 15.20109254
ECCENTRICITY   = .00164253
INCLINATION    = 97.4107
RA_OF_ASC_NODE = 97.1264
ARG_OF_PERICENTER = 159.5981
MEAN_ANOMALY   = 200.5914

EPHEMERIS_TYPE = 0
CLASSIFICATION_TYPE = U
NORAD_CAT_ID   = 67260
ELEMENT_SET_NO = 999
REV_AT_EPOCH   = 342
BSTAR          = .46822179E-3
MEAN_MOTION_DOT = .1009E-3
MEAN_MOTION_DDOT = 0

CCSDS_OMM_VERS = 2.0
CREATION_DATE  = 
ORIGINATOR     = 

OBJECT_NAME    = 2025-313P
OBJECT_ID      = 2025-313P
CENTER_NAME    = EARTH
REF_FRAME      = TEME
TIME_SYSTEM    = UTC
MEAN_ELEMENT_THEORY = SGP/SGP4

EPOCH          = 2026-01-20T01:21:37.169280
MEAN_MOTION    = 15.20597474
ECCENTRICITY   = .00159336
INCLINATION    = 97.4140
RA_OF_ASC_NODE = 97.1533
ARG_OF_PERICENTER = 158.3010
MEAN_ANOMALY   = 201.8904

EPHEMERIS_TYPE = 0
CLASSIFICATION_TYPE = U
NORAD_CAT_ID   = 67261
ELEMENT_SET_NO = 999
REV_AT_EPOCH   = 342
BSTAR          = .13343606E-2
MEAN_MOTION_DOT = .29364E-3
MEAN_MOTION_DDOT = 0

CCSDS_OMM_VERS = 2.0
CREATION_DATE  = 
ORIGINATOR     = 

OBJECT_NAME    = 2025-313Q
OBJECT_ID      = 2025-313Q
CENTER_NAME    = EARTH
REF_FRAME      = TEME
TIME_SYSTEM    = UTC
MEAN_ELEMENT_THEORY = SGP/SGP4

EPOCH          = 2026-01-20T06:08:44.820384
MEAN_MOTION    = 15.20350745
ECCENTRICITY   = .00160444
INCLINATION    = 97.4108
RA_OF_ASC_NODE = 97.3236
ARG_OF_PERICENTER = 159.4178
MEAN_ANOMALY   = 200.7707

EPHEMERIS_TYPE = 0
CLASSIFICATION_TYPE = U
NORAD_CAT_ID   = 67262
ELEMENT_SET_NO = 999
REV_AT_EPOCH   = 345
BSTAR          = .10171793E-2
MEAN_MOTION_DOT = .22188E-3
MEAN_MOTION_DDOT = 0

CCSDS_OMM_VERS = 2.0
CREATION_DATE  = 
ORIGINATOR     = 

OBJECT_NAME    = DCS-1
OBJECT_ID      = 2025-313R
CENTER_NAME    = EARTH
REF_FRAME      = TEME
TIME_SYSTEM    = UTC
MEAN_ELEMENT_THEORY = SGP/SGP4

EPOCH          = 2026-01-20T01:25:04.547424
MEAN_MOTION    = 15.20264917
ECCENTRICITY   = .00160523
INCLINATION    = 97.4122
RA_OF_ASC_NODE = 97.1442
ARG_OF_PERICENTER = 159.1204
MEAN_ANOMALY   = 201.0690

EPHEMERIS_TYPE = 0
CLASSIFICATION_TYPE = U
NORAD_CAT_ID   = 67263
ELEMENT_SET_NO = 999
REV_AT_EPOCH   = 342
BSTAR          = .67738884E-3
MEAN_MOTION_DOT = .14701E-3
MEAN_MOTION_DDOT = 0

CCSDS_OMM_VERS = 2.0
CREATION_DATE  = 
ORIGINATOR     = 

OBJECT_NAME    = 2025-313S
OBJECT_ID      = 2025-313S
CENTER_NAME    = EARTH
REF_FRAME      = TEME
TIME_SYSTEM    = UTC
MEAN_ELEMENT_THEORY = SGP/SGP4

EPOCH          = 2026-01-20T01:26:47.640768
MEAN_MOTION    = 15.20109995
ECCENTRICITY   = .00160493
INCLINATION    = 97.4191
RA_OF_ASC_NODE = 97.1456
ARG_OF_PERICENTER = 164.1138
MEAN_ANOMALY   = 196.0604

EPHEMERIS_TYPE = 0
CLASSIFICATION_TYPE = U
NORAD_CAT_ID   = 67264
ELEMENT_SET_NO = 999
REV_AT_EPOCH   = 342
BSTAR          = .42577707E-3
MEAN_MOTION_DOT = .9166E-4
MEAN_MOTION_DDOT = 0

CCSDS_OMM_VERS = 2.0
CREATION_DATE  = 
ORIGINATOR     = 

OBJECT_NAME    = SITRO-TD-4
OBJECT_ID      = 2025-313T
CENTER_NAME    = EARTH
REF_FRAME      = TEME
TIME_SYSTEM    = UTC
MEAN_ELEMENT_THEORY = SGP/SGP4

EPOCH          = 2026-01-20T01:24:27.480096
MEAN_MOTION    = 15.20285231
ECCENTRICITY   = .00159891
INCLINATION    = 97.4102
RA_OF_ASC_NODE = 97.1383
ARG_OF_PERICENTER = 159.8609
MEAN_ANOMALY   = 200.3260

EPHEMERIS_TYPE = 0
CLASSIFICATION_TYPE = U
NORAD_CAT_ID   = 67265
ELEMENT_SET_NO = 999
REV_AT_EPOCH   = 342
BSTAR          = .58767286E-3
MEAN_MOTION_DOT = .12749E-3
MEAN_MOTION_DDOT = 0

CCSDS_OMM_VERS = 2.0
CREATION_DATE  = 
ORIGINATOR     = 

OBJECT_NAME    = SITRO-AIS-65
OBJECT_ID      = 2025-313U
CENTER_NAME    = EARTH
REF_FRAME      = TEME
TIME_SYSTEM    = UTC
MEAN_ELEMENT_THEORY = SGP/SGP4

EPOCH          = 2026-01-19T23:49:33.412512
MEAN_MOTION    = 15.20291653
ECCENTRICITY   = .00158874
INCLINATION    = 97.4130
RA_OF_ASC_NODE = 97.0811
ARG_OF_PERICENTER = 158.9031
MEAN_ANOMALY   = 201.2863

EPHEMERIS_TYPE = 0
CLASSIFICATION_TYPE = U
NORAD_CAT_ID   = 67266
ELEMENT_SET_NO = 999
REV_AT_EPOCH   = 341
BSTAR          = .59879561E-3
MEAN_MOTION_DOT = .12994E-3
MEAN_MOTION_DDOT = 0

CCSDS_OMM_VERS = 2.0
CREATION_DATE  = 
ORIGINATOR     = 

OBJECT_NAME    = 2025-313V
OBJECT_ID      = 2025-313V
CENTER_NAME    = EARTH
REF_FRAME      = TEME
TIME_SYSTEM    = UTC
MEAN_ELEMENT_THEORY = SGP/SGP4

EPOCH          = 2026-01-20T01:23:24.275904
MEAN_MOTION    = 15.20374332
ECCENTRICITY   = .00150876
INCLINATION    = 97.4111
RA_OF_ASC_NODE = 97.1331
ARG_OF_PERICENTER = 164.0857
MEAN_ANOMALY   = 196.0856

EPHEMERIS_TYPE = 0
CLASSIFICATION_TYPE = U
NORAD_CAT_ID   = 67267
ELEMENT_SET_NO = 999
REV_AT_EPOCH   = 342
BSTAR          = .81823162E-3
MEAN_MOTION_DOT = .17829E-3
MEAN_MOTION_DDOT = 0

