SITRO-AIS-57            
1 67256U 25313J   26019.99748688  .00013757  00000+0  63914-3 0  9995
2 67256  97.4098  97.0553 0017329 158.2872 201.9101 15.19975632  3419
SITRO-AIS-59            
1 67257U 25313K   26020.06282450  .00015092  00000+0  70025-3 0  9991
2 67257  97.4104  97.1223 0017079 160.0241 200.1666 15.20003276  3422
SITRO-AIS-58            
1 67258U 25313L   26020.06233440  .00013636  00000+0  63240-3 0  9990
2 67258  97.4100  97.1211 0017032 159.3502 200.8425 15.20043289  3424
2025-313M               
1 67259U 25313M   26019.99284657  .00017029  00000+0  78174-3 0  9999
2 67259  97.4141  97.0854 0016193 158.2201 201.9726 15.20357450  3416
SITRO-AIS-60            
1 67260U 25313N   26020.06061378  .00010090  00000+0  46822-3 0  9990
2 67260  97.4107  97.1264 0016425 159.5981 200.5914 15.20109254  3425
2025-313P               
1 67261U 25313P   26020.05668020  .00029364  00000+0  13344-2 0  9993
2 67261  97.4140  97.1533 0015933 158.3010 201.8904 15.20597474  3423
2025-313Q               
1 67262U 25313Q   26020.25607431  .00022188  00000+0  10172-2 0  9998
2 67262  97.4108  97.3236 0016044 159.4178 200.7707 15.20350745  3451
DCS-1                   
1 67263U 25313R   26020.05908041  .00014701  00000+0  67739-3 0  9992
2 67263  97.4122  97.1442 0016052 159.1204 201.0690 15.20264917  3428
2025-313S               
1 67264U 25313S   26020.06027362  .00009166  00000+0  42578-3 0  9995
2 67264  97.4191  97.1456 0016049 164.1138 196.0604 15.20109995  3420
SITRO-TD-4              
1 67265U 25313T   26020.05865139  .00012749  00000+0  58767-3 0  9995
2 67265  97.4102  97.1383 0015989 159.8609 200.3260 15.20285231  3423
SITRO-AIS-65            
1 67266U 25313U   26019.99274783  .00012994  00000+0  59880-3 0  9995
2 67266  97.4130  97.0811 0015887 158.9031 201.2863 15.20291653  3419
2025-313V               
1 67267U 25313V   26020.05791986  .00017829  00000+0  81823-3 0  9998
2 67267  97.4111  97.1331 0015087 164.0857 196.0856 15.20374332  3423
